GSAT0101 (PRN E11)      
1 37846U 11060A   24138.04774067 -.00000093  00000+0  00000+0 0  9990
2 37846  57.1275   2.3747 0003973  35.5205 324.5510  1.70476106 78144
GSAT0102 (PRN E12)      
1 37847U 11060B   24143.53002502 -.00000072  00000+0  00000+0 0  9996
2 37847  57.1286   2.2266 0003960   5.8819 164.5267  1.70475479 78243
GSAT0103 (PRN E19)      
1 38857U 12055A   24141.60635516  .00000069  00000+0  00000+0 0  9991
2 38857  55.3952 122.3626 0005896 278.8799  81.0361  1.70473675 72099
GSAT0201 (PRN E18)      
1 40128U 14050A   24141.05981241 -.00000085  00000+0  00000+0 0  9999
2 40128  49.6897 304.1928 1610596 150.1309 220.1326  1.85519510 66197
GSAT0202 (PRN E14)      
1 40129U 14050B   24142.93518231 -.00000076  00000+0  00000+0 0  9993
2 40129  49.7048 303.1941 1609341 151.0077 218.9858  1.85520131 66454
GSAT0203 (PRN E26)      
1 40544U 15017A   24141.93311569 -.00000077  00000+0  00000+0 0  9993
2 40544  56.9229   2.2074 0001776 292.5001  67.5345  1.70475893 56293
GSAT0204 (PRN E22)      
1 40545U 15017B   24142.18726476 -.00000076  00000+0  00000+0 0  9998
2 40545  56.9292   2.2157 0001145 261.2176  98.8232  1.70475738 56966
GSAT0205 (PRN E24)      
1 40889U 15045A   24142.54202910 -.00000005  00000+0  00000+0 0  9994
2 40889  55.2300 242.5065 0003773  37.4175 322.6312  1.70474162 54119
GSAT0206 (PRN E30)      
1 40890U 15045B   24142.76267857 -.00000004  00000+0  00000+0 0  9990
2 40890  55.2310 242.4961 0002023 317.9617  42.0469  1.70474145 54140
GSAT0209 (PRN E09)      
1 41174U 15079A   24142.34583204  .00000068  00000+0  00000+0 0  9993
2 41174  55.4142 122.0515 0005501 311.4962  48.4349  1.70474236 51870
GSAT0208 (PRN E08)      
1 41175U 15079B   24142.56557553  .00000067  00000+0  00000+0 0  9995
2 41175  55.4134 122.0435 0004774 310.6388  49.2967  1.70474198 52454
GSAT0211 (PRN E02)      
1 41549U 16030A   24139.16886056 -.00000027  00000+0  00000+0 0  9990
2 41549  55.3792 242.6028 0002244 352.8039   7.2007  1.70474265 49692
GSAT0210 (PRN E01)      
1 41550U 16030B   24141.80647517 -.00000010  00000+0  00000+0 0  9995
2 41550  55.3766 242.5316 0002257 266.8233  93.1686  1.70474130 49753
GSAT0207 (PRN E07)      
1 41859U 16069A   24140.87974735  .00000068  00000+0  00000+0 0  9992
2 41859  55.0781 122.0999 0005844 299.4101  60.5172  1.70474275 46473
GSAT0212 (PRN E03)      
1 41860U 16069B   24140.73407132  .00000068  00000+0  00000+0 0  9991
2 41860  55.0757 122.1003 0004288 318.3812  41.5724  1.70474510 46728
GSAT0213 (PRN E04)      
1 41861U 16069C   24141.68884038  .00000068  00000+0  00000+0 0  9991
2 41861  55.0783 122.0807 0005823 285.0160  74.9015  1.70473097 46600
GSAT0214 (PRN E05)      
1 41862U 16069D   24143.00755357  .00000066  00000+0  00000+0 0  9999
2 41862  55.0776 122.0377 0004819 287.6299  72.2923  1.70474513 46759
GSAT0215 (PRN E21)      
1 43055U 17079A   24143.49727388  .00000002  00000+0  00000+0 0  9993
2 43055  55.3534 242.3063 0001952 251.6832 108.3255  1.70474780 40105
GSAT0216 (PRN E25)      
1 43056U 17079B   24143.20240755  .00000000  00000+0  00000+0 0  9999
2 43056  55.3538 242.3143 0002409 269.9384  90.0618  1.70474946 40116
GSAT0217 (PRN E27)      
1 43057U 17079C   24143.42286649  .00000002  00000+0  00000+0 0  9998
2 43057  55.3517 242.3070 0002421 291.1511  68.8525  1.70474908 40103
GSAT0218 (PRN E31)      
1 43058U 17079D   24143.05632474 -.00000001  00000+0  00000+0 0  9999
2 43058  55.3521 242.3147 0003616 265.7118  94.2737  1.70474799 40129
GSAT0221 (PRN E15)      
1 43564U 18060A   24141.19724839 -.00000079  00000+0  00000+0 0  9997
2 43564  57.3031   2.2208 0002703 318.3169  41.7150  1.70475811 36247
GSAT0222 (PRN E33)      
1 43565U 18060B   24142.58892062 -.00000074  00000+0  00000+0 0  9991
2 43565  57.3067   2.1850 0000565 264.0314  96.0168  1.70475527 36316
GSAT0219 (PRN E36)      
1 43566U 18060C   24142.22424010 -.00000076  00000+0  00000+0 0  9999
2 43566  57.3059   2.1968 0002406 338.3168  21.7272  1.70475788 36282
GSAT0220 (PRN E13)      
1 43567U 18060D   24141.27158078 -.00000079  00000+0  00000+0 0  9995
2 43567  57.3063   2.2230 0003937 307.6067  52.4102  1.70475849 36256
GSAT0223 (PRN E34)      
1 49809U 21116A   24143.16061972 -.00000072  00000+0  00000+0 0  9995
2 49809  57.2961   2.0665 0000626 146.3402  23.4214  1.70475898 15297
GSAT0224 (PRN E10)      
1 49810U 21116B   24138.30257660 -.00000092  00000+0  00000+0 0  9990
2 49810  57.2968   2.1954 0001027  83.3486  97.4215  1.70475970 15233
GSAT0225 (PRN E29)      
1 59598U 24079A   24143.12480126  .00000065  00000+0  00000+0 0  9995
2 59598  54.6758 122.2517 0021767 254.4872 103.0579  1.72327668   410
GSAT0227 (PRN E06)      
1 59600U 24079C   24137.59018610  .00000060  00000+0  00000+0 0  9993
2 59600  54.6837 122.3690 0006950 240.2638 205.7553  1.70566504   374
